[Satellite]
VERSION=1.1
NAME=KAZEOSAT 1
NICKNAME=ficciONE---African_Space_Research_Program
TLE1=1 39731U 14024A   15055.44393550  .00000224  00000-0  81786-4 0  9995
TLE2=2 39731  98.4955 131.2906 0000815  84.1587 275.9699 14.41977155 43293
